0 FENGYUN 1C DEB
1 36197U 99025DTW 13278.92803213  .00001207  00000-0  72650-3 0  1658
2 36197 099.0742 310.4109 0063292 221.0098 138.2045 14.07746378269187
0 FENGYUN 1C DEB
1 36197U 99025DTW 13286.31987866  .00001216  00000-0  72610-3 0  1664
2 36197 099.0720 317.8084 0074494 205.1128 154.9373 14.07767215270228
